CCSDS_OMM_VERS = 2.0
CREATION_DATE  = 
ORIGINATOR     = 

OBJECT_NAME    = STARLINK-35352
OBJECT_ID      = 2025-243A
CENTER_NAME    = EARTH
REF_FRAME      = TEME
TIME_SYSTEM    = UTC
MEAN_ELEMENT_THEORY = SGP/SGP4

EPOCH          = 2025-11-13T13:46:01.134336
MEAN_MOTION    = 15.74309496
ECCENTRICITY   = .0001519
INCLINATION    = 53.1580
RA_OF_ASC_NODE = 66.9033
ARG_OF_PERICENTER = 55.0023
MEAN_ANOMALY   = 305.1139

EPHEMERIS_TYPE = 0
CLASSIFICATION_TYPE = U
NORAD_CAT_ID   = 66177
ELEMENT_SET_NO = 999
REV_AT_EPOCH   = 284
BSTAR          = .18499E-2
MEAN_MOTION_DOT = .280979E-2
MEAN_MOTION_DDOT = 0

CCSDS_OMM_VERS = 2.0
CREATION_DATE  = 
ORIGINATOR     = 

OBJECT_NAME    = STARLINK-35363
OBJECT_ID      = 2025-243B
CENTER_NAME    = EARTH
REF_FRAME      = TEME
TIME_SYSTEM    = UTC
MEAN_ELEMENT_THEORY = SGP/SGP4

EPOCH          = 2025-11-13T16:49:51.030048
MEAN_MOTION    = 15.74233739
ECCENTRICITY   = .0001433
INCLINATION    = 53.1579
RA_OF_ASC_NODE = 66.2775
ARG_OF_PERICENTER = 72.5424
MEAN_ANOMALY   = 287.5752

EPHEMERIS_TYPE = 0
CLASSIFICATION_TYPE = U
NORAD_CAT_ID   = 66178
ELEMENT_SET_NO = 999
REV_AT_EPOCH   = 286
BSTAR          = .13551E-2
MEAN_MOTION_DOT = .203077E-2
MEAN_MOTION_DDOT = 0

CCSDS_OMM_VERS = 2.0
CREATION_DATE  = 
ORIGINATOR     = 

OBJECT_NAME    = STARLINK-35346
OBJECT_ID      = 2025-243C
CENTER_NAME    = EARTH
REF_FRAME      = TEME
TIME_SYSTEM    = UTC
MEAN_ELEMENT_THEORY = SGP/SGP4

EPOCH          = 2025-11-13T16:50:20.224608
MEAN_MOTION    = 15.74232443
ECCENTRICITY   = .0001325
INCLINATION    = 53.1581
RA_OF_ASC_NODE = 66.2796
ARG_OF_PERICENTER = 70.5912
MEAN_ANOMALY   = 289.5250

EPHEMERIS_TYPE = 0
CLASSIFICATION_TYPE = U
NORAD_CAT_ID   = 66179
ELEMENT_SET_NO = 999
REV_AT_EPOCH   = 286
BSTAR          = .13413E-2
MEAN_MOTION_DOT = .200939E-2
MEAN_MOTION_DDOT = 0

CCSDS_OMM_VERS = 2.0
CREATION_DATE  = 
ORIGINATOR     = 

OBJECT_NAME    = STARLINK-35335
OBJECT_ID      = 2025-243D
CENTER_NAME    = EARTH
REF_FRAME      = TEME
TIME_SYSTEM    = UTC
MEAN_ELEMENT_THEORY = SGP/SGP4

EPOCH          = 2025-11-13T16:50:49.458048
MEAN_MOTION    = 15.74234681
ECCENTRICITY   = .0001645
INCLINATION    = 53.1577
RA_OF_ASC_NODE = 66.2829
ARG_OF_PERICENTER = 74.0102
MEAN_ANOMALY   = 286.1099

EPHEMERIS_TYPE = 0
CLASSIFICATION_TYPE = U
NORAD_CAT_ID   = 66180
ELEMENT_SET_NO = 999
REV_AT_EPOCH   = 286
BSTAR          = .13601E-2
MEAN_MOTION_DOT = .203861E-2
MEAN_MOTION_DDOT = 0

CCSDS_OMM_VERS = 2.0
CREATION_DATE  = 
ORIGINATOR     = 

OBJECT_NAME    = STARLINK-35342
OBJECT_ID      = 2025-243E
CENTER_NAME    = EARTH
REF_FRAME      = TEME
TIME_SYSTEM    = UTC
MEAN_ELEMENT_THEORY = SGP/SGP4

EPOCH          = 2025-11-13T16:51:18.681984
MEAN_MOTION    = 15.74230198
ECCENTRICITY   = .000148
INCLINATION    = 53.1578
RA_OF_ASC_NODE = 66.2853
ARG_OF_PERICENTER = 73.5132
MEAN_ANOMALY   = 286.6051

EPHEMERIS_TYPE = 0
CLASSIFICATION_TYPE = U
NORAD_CAT_ID   = 66181
ELEMENT_SET_NO = 999
REV_AT_EPOCH   = 286
BSTAR          = .13263E-2
MEAN_MOTION_DOT = .198608E-2
MEAN_MOTION_DDOT = 0

CCSDS_OMM_VERS = 2.0
CREATION_DATE  = 
ORIGINATOR     = 

OBJECT_NAME    = STARLINK-35333
OBJECT_ID      = 2025-243F
CENTER_NAME    = EARTH
REF_FRAME      = TEME
TIME_SYSTEM    = UTC
MEAN_ELEMENT_THEORY = SGP/SGP4

EPOCH          = 2025-11-13T16:51:47.829024
MEAN_MOTION    = 15.74226760
ECCENTRICITY   = .0001264
INCLINATION    = 53.1580
RA_OF_ASC_NODE = 66.2870
ARG_OF_PERICENTER = 96.6645
MEAN_ANOMALY   = 263.4518

EPHEMERIS_TYPE = 0
CLASSIFICATION_TYPE = U
NORAD_CAT_ID   = 66182
ELEMENT_SET_NO = 999
REV_AT_EPOCH   = 286
BSTAR          = .12418E-2
MEAN_MOTION_DOT = .185593E-2
MEAN_MOTION_DDOT = 0

CCSDS_OMM_VERS = 2.0
CREATION_DATE  = 
ORIGINATOR     = 

OBJECT_NAME    = STARLINK-35310
OBJECT_ID      = 2025-243G
CENTER_NAME    = EARTH
REF_FRAME      = TEME
TIME_SYSTEM    = UTC
MEAN_ELEMENT_THEORY = SGP/SGP4

EPOCH          = 2025-11-13T16:52:16.735008
MEAN_MOTION    = 15.74289166
ECCENTRICITY   = .0000828
INCLINATION    = 53.1578
RA_OF_ASC_NODE = 66.2904
ARG_OF_PERICENTER = 101.4067
MEAN_ANOMALY   = 258.7045

EPHEMERIS_TYPE = 0
CLASSIFICATION_TYPE = U
NORAD_CAT_ID   = 66183
ELEMENT_SET_NO = 999
REV_AT_EPOCH   = 286
BSTAR          = .21383E-2
MEAN_MOTION_DOT = .326392E-2
MEAN_MOTION_DDOT = 0

CCSDS_OMM_VERS = 2.0
CREATION_DATE  = 
ORIGINATOR     = 

OBJECT_NAME    = STARLINK-35317
OBJECT_ID      = 2025-243H
CENTER_NAME    = EARTH
REF_FRAME      = TEME
TIME_SYSTEM    = UTC
MEAN_ELEMENT_THEORY = SGP/SGP4

EPOCH          = 2025-11-13T13:54:17.518752
MEAN_MOTION    = 15.74338498
ECCENTRICITY   = .00009
INCLINATION    = 53.1575
RA_OF_ASC_NODE = 66.9439
ARG_OF_PERICENTER = 82.9690
MEAN_ANOMALY   = 277.1433

EPHEMERIS_TYPE = 0
CLASSIFICATION_TYPE = U
NORAD_CAT_ID   = 66184
ELEMENT_SET_NO = 999
REV_AT_EPOCH   = 284
BSTAR          = .22908E-2
MEAN_MOTION_DOT = .351515E-2
MEAN_MOTION_DDOT = 0

CCSDS_OMM_VERS = 2.0
CREATION_DATE  = 
ORIGINATOR     = 

OBJECT_NAME    = STARLINK-35377
OBJECT_ID      = 2025-243J
CENTER_NAME    = EARTH
REF_FRAME      = TEME
TIME_SYSTEM    = UTC
MEAN_ELEMENT_THEORY = SGP/SGP4

EPOCH          = 2025-11-13T13:55:15.900960
MEAN_MOTION    = 15.74338959
ECCENTRICITY   = .0000835
INCLINATION    = 53.1574
RA_OF_ASC_NODE = 66.9483
ARG_OF_PERICENTER = 36.3001
MEAN_ANOMALY   = 323.8076

EPHEMERIS_TYPE = 0
CLASSIFICATION_TYPE = U
NORAD_CAT_ID   = 66185
ELEMENT_SET_NO = 999
REV_AT_EPOCH   = 284
BSTAR          = .23347E-2
MEAN_MOTION_DOT = .358576E-2
MEAN_MOTION_DDOT = 0

CCSDS_OMM_VERS = 2.0
CREATION_DATE  = 
ORIGINATOR     = 

OBJECT_NAME    = STARLINK-35365
OBJECT_ID      = 2025-243K
CENTER_NAME    = EARTH
REF_FRAME      = TEME
TIME_SYSTEM    = UTC
MEAN_ELEMENT_THEORY = SGP/SGP4

EPOCH          = 2025-11-13T13:56:14.697024
MEAN_MOTION    = 15.74263559
ECCENTRICITY   = .0001014
INCLINATION    = 53.1579
RA_OF_ASC_NODE = 66.9537
ARG_OF_PERICENTER = 55.4464
MEAN_ANOMALY   = 304.6651

EPHEMERIS_TYPE = 0
CLASSIFICATION_TYPE = U
NORAD_CAT_ID   = 66186
ELEMENT_SET_NO = 999
REV_AT_EPOCH   = 284
BSTAR          = .13712E-2
MEAN_MOTION_DOT = .205827E-2
MEAN_MOTION_DDOT = 0

CCSDS_OMM_VERS = 2.0
CREATION_DATE  = 
ORIGINATOR     = 

OBJECT_NAME    = STARLINK-35350
OBJECT_ID      = 2025-243L
CENTER_NAME    = EARTH
REF_FRAME      = TEME
TIME_SYSTEM    = UTC
MEAN_ELEMENT_THEORY = SGP/SGP4

EPOCH          = 2025-11-13T13:55:45.397920
MEAN_MOTION    = 15.74282001
ECCENTRICITY   = .0001205
INCLINATION    = 53.1577
RA_OF_ASC_NODE = 66.9514
ARG_OF_PERICENTER = 43.6322
MEAN_ANOMALY   = 316.4793

EPHEMERIS_TYPE = 0
CLASSIFICATION_TYPE = U
NORAD_CAT_ID   = 66187
ELEMENT_SET_NO = 999
REV_AT_EPOCH   = 284
BSTAR          = .16351E-2
MEAN_MOTION_DOT = .246973E-2
MEAN_MOTION_DDOT = 0

CCSDS_OMM_VERS = 2.0
CREATION_DATE  = 
ORIGINATOR     = 

OBJECT_NAME    = STARLINK-35041
OBJECT_ID      = 2025-243M
CENTER_NAME    = EARTH
REF_FRAME      = TEME
TIME_SYSTEM    = UTC
MEAN_ELEMENT_THEORY = SGP/SGP4

EPOCH          = 2025-11-13T13:53:48.331104
MEAN_MOTION    = 15.74326772
ECCENTRICITY   = .0000802
INCLINATION    = 53.1573
RA_OF_ASC_NODE = 66.9422
ARG_OF_PERICENTER = 75.9242
MEAN_ANOMALY   = 284.1867

EPHEMERIS_TYPE = 0
CLASSIFICATION_TYPE = U
NORAD_CAT_ID   = 66188
ELEMENT_SET_NO = 999
REV_AT_EPOCH   = 284
BSTAR          = .21324E-2
MEAN_MOTION_DOT = .325997E-2
MEAN_MOTION_DDOT = 0

