STARLINK-35352          
1 66177U 25243A   25317.57362424  .00280979  00000+0  18499-2 0  9991
2 66177  53.1580  66.9033 0001519  55.0023 305.1139 15.74309496  2843
STARLINK-35363          
1 66178U 25243B   25317.70128507  .00203077  00000+0  13551-2 0  9997
2 66178  53.1579  66.2775 0001433  72.5424 287.5752 15.74233739  2864
STARLINK-35346          
1 66179U 25243C   25317.70162297  .00200939  00000+0  13413-2 0  9993
2 66179  53.1581  66.2796 0001325  70.5912 289.5250 15.74232443  2867
STARLINK-35335          
1 66180U 25243D   25317.70196132  .00203861  00000+0  13601-2 0  9996
2 66180  53.1577  66.2829 0001645  74.0102 286.1099 15.74234681  2866
STARLINK-35342          
1 66181U 25243E   25317.70229956  .00198608  00000+0  13263-2 0  9994
2 66181  53.1578  66.2853 0001480  73.5132 286.6051 15.74230198  2861
STARLINK-35333          
1 66182U 25243F   25317.70263691  .00185593  00000+0  12418-2 0  9999
2 66182  53.1580  66.2870 0001264  96.6645 263.4518 15.74226760  2860
STARLINK-35310          
1 66183U 25243G   25317.70297147  .00326392  00000+0  21383-2 0  9998
2 66183  53.1578  66.2904 0000828 101.4067 258.7045 15.74289166  2865
STARLINK-35317          
1 66184U 25243H   25317.57936943  .00351515  00000+0  22908-2 0  9997
2 66184  53.1575  66.9439 0000900  82.9690 277.1433 15.74338498  2846
STARLINK-35377          
1 66185U 25243J   25317.58004515  .00358576  00000+0  23347-2 0  9992
2 66185  53.1574  66.9483 0000835  36.3001 323.8076 15.74338959  2845
STARLINK-35365          
1 66186U 25243K   25317.58072566  .00205827  00000+0  13712-2 0  9999
2 66186  53.1579  66.9537 0001014  55.4464 304.6651 15.74263559  2845
STARLINK-35350          
1 66187U 25243L   25317.58038655  .00246973  00000+0  16351-2 0  9990
2 66187  53.1577  66.9514 0001205  43.6322 316.4793 15.74282001  2844
STARLINK-35041          
1 66188U 25243M   25317.57903161  .00325997  00000+0  21324-2 0  9993
2 66188  53.1573  66.9422 0000802  75.9242 284.1867 15.74326772  2847
